COSMOS 1812             
1 17295U 87003A   26062.61804691  .02074640 -12187-5  77782-3 0  9995
2 17295  82.4711 202.5548 0007895 287.2968  72.7458 16.24359428143506
IRIDIUM 51              
1 25262U 98018A   26062.62919368  .00675492  20260-3  13683-2 0  9992
2 25262  86.3532 283.8213 0017914 308.4745  51.4933 15.99293840487381
CZ-2D DEB               
1 31409U 05024J   26060.90543068  .00239460  23346-4  72484-3 0  9991
2 31409  97.1482 103.0739 0004089 145.2826 214.8716 15.92111318117181
ZIYUAN 3-01 (ZY 3-01)   
1 38046U 12001A   26062.74713627  .00466524  92701-4  10557-2 0  9998
2 38046  97.1548 137.2939 0001845 247.4015 112.7067 15.97586704787752
HUMSAT-D                
1 39433U 13066T   26062.56443895  .01051054  55125-3  21154-2 0  9990
2 39433  97.4829  75.1164 0007111 164.3935 195.7564 15.99754592670486
H-2A DEB                
1 43675U 18084E   26062.61479252  .01222586  77137-3  25825-2 0  9996
2 43675  98.0066 278.4576 0003313 299.2021  60.8923 15.98985857402155
SPACEBEE-7              
1 43816U 18099BL  26062.19267674  .01223781  84948-3  19162-2 0  9998
2 43816  97.4402 148.5792 0008197 271.8568  88.1774 16.04143881398177
STARLINK-1112           
1 44925U 20001M   26062.57759378  .00621977  20023-3  83878-3 0  9993
2 44925  53.0340 272.7953 0004019 266.2978  93.7594 16.05879900340346
STARLINK-1210           
1 45207U 20012AF  26062.78339796  .06351918  12300-4  68555-3 0  9996
2 45207  52.9976 288.6877 0006102 292.3798  67.6600 16.36592232335974
STARLINK-1484           
1 45756U 20038AC  26062.66668981  .00379564  70291-4  83201-3 0  9990
2 45756  52.9983  87.7366 0007075  36.0536  59.2646 15.97595679  6027
STARLINK-1601           
1 46120U 20057D   26062.59674447  .03993572  12003-4  10948-2 0  9991
2 46120  53.0290 285.6815 0007153 261.4690  98.5540 16.27230128307242
STARLINK-1723           
1 46333U 20062J   26062.64646586  .02021133  45737-2  13748-2 0  9995
2 46333  53.0368 353.1909 0006312 201.0538 159.0240 16.17129904304106
STARLINK-1738           
1 46336U 20062M   26062.66668981  .00685523  22336-3  13160-2 0  9999
2 46336  53.0282 311.5301 0005173 142.0345  47.3407 15.99937621  5959
STARLINK-1687           
1 46541U 20070K   26062.67675184  .02360535  11789-4  13682-2 0  9995
2 46541  53.0287 121.4960 0010064   4.2049 355.9071 16.18037847299746
STARLINK-1712           
1 46581U 20070BB  26062.66668981  .00541708  13124-3  13493-2 0  9990
2 46581  53.0300 111.3749 0007010 339.9349  23.3353 15.95232420  5895
STARLINK-1848           
1 46740U 20074B   26062.80112513  .06749356  12196-4  90214-3 0  9993
2 46740  53.0210 280.8289 0007261 260.1263  99.8961 16.34596860296723
